SL-3 R/B                
1 13154U 82039B   25318.26649601  .00004286  00000+0  26436-3 0  9992
2 13154  81.1793 348.8390 0032038 346.0202  14.0133 15.09301249364226
SL-3 R/B                
1 13403U 82079B   25318.30499476  .00008285  00000+0  34645-3 0  9995
2 13403  81.1470 329.1720 0025408 192.6603 167.3995 15.23162830360127
SL-14 R/B               
1 13553U 82092B   25318.29340264  .00001290  00000+0  14267-3 0  9991
2 13553  82.5682 249.3126 0019587 328.2969 192.6562 14.86509827311787
SL-3 R/B                
1 13819U 83010B   25317.97757046  .00026054  00000+0  59677-3 0  9990
2 13819  81.1027 143.6994 0018233  89.0071 271.3261 15.42454662340087
SL-3 R/B                
1 14208U 83075B   25318.24821814  .00013115  00000+0  38153-3 0  9990
2 14208  97.6105 313.7932 0021067 283.6049  76.2847 15.35350908312426
COSMOS 1536             
1 14699U 84013A   25318.21275706  .00011919  00000+0  51811-3 0  9993
2 14699  82.5469 222.4414 0014440 336.8500  23.2084 15.22063017255044
SL-14 R/B               
1 14820U 84027B   25318.20409587  .00000958  00000+0  10711-3 0  9994
2 14820  82.5427 353.3179 0017941   1.1744 358.9511 14.85831770230488
SL-8 R/B                
1 15483U 85006B   25317.45683986  .00000634  00000+0  21930-3 0  9997
2 15483  74.0433 115.0084 0017620  56.6464   4.5444 14.37694707137325
SL-12 R/B(2)            
1 15772U 85042D   25318.33090368  .00000235  00000+0  12739-3 0  9996
2 15772  71.1083 331.4386 0037322 303.0556 145.7123 14.21938502 97993
SL-14 R/B               
1 15945U 85069B   25317.95453793  .00001319  00000+0  14688-3 0  9998
2 15945  82.5245 133.7657 0017966 212.0820 147.9304 14.86275123155646
SL-16 R/B               
1 16182U 85097B   25318.32340997  .00000086  00000+0  67331-4 0  9990
2 16182  71.0045  23.4276 0005322  64.7012   2.4592 14.16576323 70897
SL-14 R/B               
1 16496U 86006B   25318.22885028  .00001330  00000+0  13982-3 0  9992
2 16496  82.5289   8.3768 0075376 295.9639  63.3825 14.86614807132058
