CCSDS_OMM_VERS = 2.0
CREATION_DATE  = 
ORIGINATOR     = 

OBJECT_NAME    = SL-3 R/B
OBJECT_ID      = 1982-039B
CENTER_NAME    = EARTH
REF_FRAME      = TEME
TIME_SYSTEM    = UTC
MEAN_ELEMENT_THEORY = SGP/SGP4

EPOCH          = 2025-11-14T06:23:45.255264
MEAN_MOTION    = 15.09301249
ECCENTRICITY   = .00320381
INCLINATION    = 81.1793
RA_OF_ASC_NODE = 348.8390
ARG_OF_PERICENTER = 346.0202
MEAN_ANOMALY   = 14.0133

EPHEMERIS_TYPE = 0
CLASSIFICATION_TYPE = U
NORAD_CAT_ID   = 13154
ELEMENT_SET_NO = 999
REV_AT_EPOCH   = 36422
BSTAR          = .26435502E-3
MEAN_MOTION_DOT = .4286E-4
MEAN_MOTION_DDOT = 0

CCSDS_OMM_VERS = 2.0
CREATION_DATE  = 
ORIGINATOR     = 

OBJECT_NAME    = SL-3 R/B
OBJECT_ID      = 1982-079B
CENTER_NAME    = EARTH
REF_FRAME      = TEME
TIME_SYSTEM    = UTC
MEAN_ELEMENT_THEORY = SGP/SGP4

EPOCH          = 2025-11-14T07:19:11.547264
MEAN_MOTION    = 15.23162830
ECCENTRICITY   = .00254082
INCLINATION    = 81.1470
RA_OF_ASC_NODE = 329.1720
ARG_OF_PERICENTER = 192.6603
MEAN_ANOMALY   = 167.3995

EPHEMERIS_TYPE = 0
CLASSIFICATION_TYPE = U
NORAD_CAT_ID   = 13403
ELEMENT_SET_NO = 999
REV_AT_EPOCH   = 36012
BSTAR          = .34644621E-3
MEAN_MOTION_DOT = .8285E-4
MEAN_MOTION_DDOT = 0

CCSDS_OMM_VERS = 2.0
CREATION_DATE  = 
ORIGINATOR     = 

OBJECT_NAME    = SL-14 R/B
OBJECT_ID      = 1982-092B
CENTER_NAME    = EARTH
REF_FRAME      = TEME
TIME_SYSTEM    = UTC
MEAN_ELEMENT_THEORY = SGP/SGP4

EPOCH          = 2025-11-14T07:02:29.988096
MEAN_MOTION    = 14.86509827
ECCENTRICITY   = .00195878
INCLINATION    = 82.5682
RA_OF_ASC_NODE = 249.3126
ARG_OF_PERICENTER = 328.2969
MEAN_ANOMALY   = 192.6562

EPHEMERIS_TYPE = 0
CLASSIFICATION_TYPE = U
NORAD_CAT_ID   = 13553
ELEMENT_SET_NO = 999
REV_AT_EPOCH   = 31178
BSTAR          = .1426701E-3
MEAN_MOTION_DOT = .129E-4
MEAN_MOTION_DDOT = 0

CCSDS_OMM_VERS = 2.0
CREATION_DATE  = 
ORIGINATOR     = 

OBJECT_NAME    = SL-3 R/B
OBJECT_ID      = 1983-010B
CENTER_NAME    = EARTH
REF_FRAME      = TEME
TIME_SYSTEM    = UTC
MEAN_ELEMENT_THEORY = SGP/SGP4

EPOCH          = 2025-11-13T23:27:42.087744
MEAN_MOTION    = 15.42454662
ECCENTRICITY   = .00182339
INCLINATION    = 81.1027
RA_OF_ASC_NODE = 143.6994
ARG_OF_PERICENTER = 89.0071
MEAN_ANOMALY   = 271.3261

EPHEMERIS_TYPE = 0
CLASSIFICATION_TYPE = U
NORAD_CAT_ID   = 13819
ELEMENT_SET_NO = 999
REV_AT_EPOCH   = 34008
BSTAR          = .59676785E-3
MEAN_MOTION_DOT = .26054E-3
MEAN_MOTION_DDOT = 0

CCSDS_OMM_VERS = 2.0
CREATION_DATE  = 
ORIGINATOR     = 

OBJECT_NAME    = SL-3 R/B
OBJECT_ID      = 1983-075B
CENTER_NAME    = EARTH
REF_FRAME      = TEME
TIME_SYSTEM    = UTC
MEAN_ELEMENT_THEORY = SGP/SGP4

EPOCH          = 2025-11-14T05:57:26.047296
MEAN_MOTION    = 15.35350908
ECCENTRICITY   = .00210673
INCLINATION    = 97.6105
RA_OF_ASC_NODE = 313.7932
ARG_OF_PERICENTER = 283.6049
MEAN_ANOMALY   = 76.2847

EPHEMERIS_TYPE = 0
CLASSIFICATION_TYPE = U
NORAD_CAT_ID   = 14208
ELEMENT_SET_NO = 999
REV_AT_EPOCH   = 31242
BSTAR          = .38153496E-3
MEAN_MOTION_DOT = .13115E-3
MEAN_MOTION_DDOT = 0

CCSDS_OMM_VERS = 2.0
CREATION_DATE  = 
ORIGINATOR     = 

OBJECT_NAME    = COSMOS 1536
OBJECT_ID      = 1984-013A
CENTER_NAME    = EARTH
REF_FRAME      = TEME
TIME_SYSTEM    = UTC
MEAN_ELEMENT_THEORY = SGP/SGP4

EPOCH          = 2025-11-14T05:06:22.209984
MEAN_MOTION    = 15.22063017
ECCENTRICITY   = .00144408
INCLINATION    = 82.5469
RA_OF_ASC_NODE = 222.4414
ARG_OF_PERICENTER = 336.8500
MEAN_ANOMALY   = 23.2084

EPHEMERIS_TYPE = 0
CLASSIFICATION_TYPE = U
NORAD_CAT_ID   = 14699
ELEMENT_SET_NO = 999
REV_AT_EPOCH   = 25504
BSTAR          = .51810739E-3
MEAN_MOTION_DOT = .11919E-3
MEAN_MOTION_DDOT = 0

CCSDS_OMM_VERS = 2.0
CREATION_DATE  = 
ORIGINATOR     = 

OBJECT_NAME    = SL-14 R/B
OBJECT_ID      = 1984-027B
CENTER_NAME    = EARTH
REF_FRAME      = TEME
TIME_SYSTEM    = UTC
MEAN_ELEMENT_THEORY = SGP/SGP4

EPOCH          = 2025-11-14T04:53:53.883168
MEAN_MOTION    = 14.85831770
ECCENTRICITY   = .00179417
INCLINATION    = 82.5427
RA_OF_ASC_NODE = 353.3179
ARG_OF_PERICENTER = 1.1744
MEAN_ANOMALY   = 358.9511

EPHEMERIS_TYPE = 0
CLASSIFICATION_TYPE = U
NORAD_CAT_ID   = 14820
ELEMENT_SET_NO = 999
REV_AT_EPOCH   = 23048
BSTAR          = .10710543E-3
MEAN_MOTION_DOT = .958E-5
MEAN_MOTION_DDOT = 0

CCSDS_OMM_VERS = 2.0
CREATION_DATE  = 
ORIGINATOR     = 

OBJECT_NAME    = SL-8 R/B
OBJECT_ID      = 1985-006B
CENTER_NAME    = EARTH
REF_FRAME      = TEME
TIME_SYSTEM    = UTC
MEAN_ELEMENT_THEORY = SGP/SGP4

EPOCH          = 2025-11-13T10:57:50.963904
MEAN_MOTION    = 14.37694707
ECCENTRICITY   = .001762
INCLINATION    = 74.0433
RA_OF_ASC_NODE = 115.0084
ARG_OF_PERICENTER = 56.6464
MEAN_ANOMALY   = 4.5444

EPHEMERIS_TYPE = 0
CLASSIFICATION_TYPE = U
NORAD_CAT_ID   = 15483
ELEMENT_SET_NO = 999
REV_AT_EPOCH   = 13732
BSTAR          = .2193E-3
MEAN_MOTION_DOT = .634E-5
MEAN_MOTION_DDOT = 0

CCSDS_OMM_VERS = 2.0
CREATION_DATE  = 
ORIGINATOR     = 

OBJECT_NAME    = SL-12 R/B(2)
OBJECT_ID      = 1985-042D
CENTER_NAME    = EARTH
REF_FRAME      = TEME
TIME_SYSTEM    = UTC
MEAN_ELEMENT_THEORY = SGP/SGP4

EPOCH          = 2025-11-14T07:56:30.077952
MEAN_MOTION    = 14.21938502
ECCENTRICITY   = .00373229
INCLINATION    = 71.1083
RA_OF_ASC_NODE = 331.4386
ARG_OF_PERICENTER = 303.0556
MEAN_ANOMALY   = 145.7123

EPHEMERIS_TYPE = 0
CLASSIFICATION_TYPE = U
NORAD_CAT_ID   = 15772
ELEMENT_SET_NO = 999
REV_AT_EPOCH   = 9799
BSTAR          = .12738976E-3
MEAN_MOTION_DOT = .235E-5
MEAN_MOTION_DDOT = 0

CCSDS_OMM_VERS = 2.0
CREATION_DATE  = 
ORIGINATOR     = 

OBJECT_NAME    = SL-14 R/B
OBJECT_ID      = 1985-069B
CENTER_NAME    = EARTH
REF_FRAME      = TEME
TIME_SYSTEM    = UTC
MEAN_ELEMENT_THEORY = SGP/SGP4

EPOCH          = 2025-11-13T22:54:32.077152
MEAN_MOTION    = 14.86275123
ECCENTRICITY   = .00179662
INCLINATION    = 82.5245
RA_OF_ASC_NODE = 133.7657
ARG_OF_PERICENTER = 212.0820
MEAN_ANOMALY   = 147.9304

EPHEMERIS_TYPE = 0
CLASSIFICATION_TYPE = U
NORAD_CAT_ID   = 15945
ELEMENT_SET_NO = 999
REV_AT_EPOCH   = 15564
BSTAR          = .14687985E-3
MEAN_MOTION_DOT = .1319E-4
MEAN_MOTION_DDOT = 0

CCSDS_OMM_VERS = 2.0
CREATION_DATE  = 
ORIGINATOR     = 

OBJECT_NAME    = SL-16 R/B
OBJECT_ID      = 1985-097B
CENTER_NAME    = EARTH
REF_FRAME      = TEME
TIME_SYSTEM    = UTC
MEAN_ELEMENT_THEORY = SGP/SGP4

EPOCH          = 2025-11-14T07:45:42.621408
MEAN_MOTION    = 14.16576323
ECCENTRICITY   = .00053226
INCLINATION    = 71.0045
RA_OF_ASC_NODE = 23.4276
ARG_OF_PERICENTER = 64.7012
MEAN_ANOMALY   = 2.4592

EPHEMERIS_TYPE = 0
CLASSIFICATION_TYPE = U
NORAD_CAT_ID   = 16182
ELEMENT_SET_NO = 999
REV_AT_EPOCH   = 7089
BSTAR          = .67330693E-4
MEAN_MOTION_DOT = .86E-6
MEAN_MOTION_DDOT = 0

CCSDS_OMM_VERS = 2.0
CREATION_DATE  = 
ORIGINATOR     = 

OBJECT_NAME    = SL-14 R/B
OBJECT_ID      = 1986-006B
CENTER_NAME    = EARTH
REF_FRAME      = TEME
TIME_SYSTEM    = UTC
MEAN_ELEMENT_THEORY = SGP/SGP4

EPOCH          = 2025-11-14T05:29:32.664192
MEAN_MOTION    = 14.86614807
ECCENTRICITY   = .00753764
INCLINATION    = 82.5289
RA_OF_ASC_NODE = 8.3768
ARG_OF_PERICENTER = 295.9639
MEAN_ANOMALY   = 63.3825

EPHEMERIS_TYPE = 0
CLASSIFICATION_TYPE = U
NORAD_CAT_ID   = 16496
ELEMENT_SET_NO = 999
REV_AT_EPOCH   = 13205
BSTAR          = .13982117E-3
MEAN_MOTION_DOT = .133E-4
MEAN_MOTION_DDOT = 0

